[{"OBJECT_NAME":"STARLINK-30960","OBJECT_ID":"2023-183V","EPOCH":"2026-03-09T22:00:01.999584","MEAN_MOTION":15.71845093,"ECCENTRICITY":0.00290225,"INCLINATION":42.9869,"RA_OF_ASC_NODE":306.2273,"ARG_OF_PERICENTER":250.1506,"MEAN_ANOMALY":28.4078,"EPHEMERIS_TYPE":0,"CLASSIFICATION_TYPE":"U","NORAD_CAT_ID":58456,"ELEMENT_SET_NO":999,"REV_AT_EPOCH":592,"BSTAR":0.0060496308,"MEAN_MOTION_DOT":0.00921154,"MEAN_MOTION_DDOT":0},{"OBJECT_NAME":"STARLINK-36570","OBJECT_ID":"2026-020Z","EPOCH":"2026-03-08T13:55:50.947392","MEAN_MOTION":15.76463592,"ECCENTRICITY":0.00018309,"INCLINATION":42.9991,"RA_OF_ASC_NODE":148.6836,"ARG_OF_PERICENTER":285.4802,"MEAN_ANOMALY":74.5865,"EPHEMERIS_TYPE":0,"CLASSIFICATION_TYPE":"U","NORAD_CAT_ID":67640,"ELEMENT_SET_NO":999,"REV_AT_EPOCH":591,"BSTAR":0.0021568895,"MEAN_MOTION_DOT":0.00368006,"MEAN_MOTION_DDOT":0}]
